STARLINK-37119          
1 68210U 26053D   26157.09609048  .00037538  00000+0  11590-2 0  9993
2 68210  97.2841  32.3292 0001023  86.5255 273.6105 15.33452750 13764
STARLINK-37120          
1 68211U 26053E   26156.37555717  .00025258  00000+0  78167-3 0  9997
2 68211  97.2854  31.6291 0000995 235.9576 124.1572 15.33462606 13638
STARLINK-37117          
1 68212U 26053F   26155.65503679  .00023853  00000+0  73863-3 0  9995
2 68212  97.2849  30.9222 0002578  99.5173 260.6361 15.33452506 13545
STARLINK-37116          
1 68213U 26053G   26156.56589471  .00035972  00000+0  11106-2 0  9997
2 68213  97.2849  31.8299 0002091 101.2762 258.8716 15.33463045 13683
STARLINK-35854          
1 68214U 26053H   26156.40547552  .00022379  00000+0  69305-3 0  9997
2 68214  97.2863  31.7359 0002040  66.9886 293.1571 15.33462986 13644
STARLINK-36272          
1 68215U 26053J   26155.64688077  .00024701  00000+0  76446-3 0  9996
2 68215  97.2844  30.9305 0003166 111.2801 248.8780 15.33460660 13520
STARLINK-37014          
1 68216U 26053K   26155.83992371  .00011646  00000+0  36251-3 0  9997
2 68216  97.2842  31.1322 0001478 111.6387 248.5013 15.33445733 13573
STARLINK-37011          
1 68217U 26053L   26156.81603797  .00033179  00000+0  10244-2 0  9996
2 68217  97.2859  32.1016 0001913 119.9118 240.2315 15.33479644 13729
STARLINK-37108          
1 68218U 26053M   26156.09551264  .00022806  00000+0  70627-3 0  9995
2 68218  97.2864  31.3978 0001921  65.3586 294.7857 15.33459203 13618
STARLINK-37106          
1 68219U 26053N   26155.24447431  .00017726  00000+0  55012-3 0  9998
2 68219  97.2858  30.5608 0001948  93.5484 266.5981 15.33442996 13483
STARLINK-37030          
1 68220U 26053P   26155.23903548  .00023204  00000+0  71877-3 0  9990
2 68220  97.2867  30.5636 0001981 106.2681 253.8779 15.33448315 13489
STARLINK-37012          
1 68221U 26053Q   26156.09007065  .00019977  00000+0  61933-3 0  9999
2 68221  97.2857  31.4016 0000355  68.8107 291.3173 15.33453079 13614
STARLINK-37110          
1 68222U 26053R   26156.73718977  .00013374  00000+0  41587-3 0  9990
2 68222  97.2854  32.0536 0001624  97.3850 262.7577 15.33444093 13715
STARLINK-37025          
1 68223U 26053S   26156.08191227  .00017140  00000+0  53184-3 0  9993
2 68223  97.2853  31.4158 0001329 142.5755 217.5580 15.33456663 13614
STARLINK-36960          
1 68225U 26053U   26156.40275811  .00022390  00000+0  69343-3 0  9990
2 68225  97.2865  31.7460 0001781  80.4390 279.7054 15.33461642 13647
STARLINK-37038          
1 68226U 26053V   26156.39732269  .00020289  00000+0  62874-3 0  9991
2 68226  97.2870  31.7545 0002942  76.1307 284.0263 15.33460159 13641
STARLINK-37083          
1 68227U 26053W   26156.40004363  .00026951  00000+0  83347-3 0  9991
2 68227  97.2867  31.7512 0002880  73.3973 286.7586 15.33468431 13638
STARLINK-37050          
1 68228U 26053X   26155.22000168  .00020107  00000+0  62339-3 0  9995
2 68228  97.2852  30.5954 0001175  75.0312 285.1060 15.33450341 13464
STARLINK-37081          
1 68229U 26053Y   26156.88692488  .00090434  00000+0  16409-2 0  9997
2 68229  97.2868  35.0540 0002396 121.3231 238.8255 15.49266081 13929
STARLINK-37100          
1 68230U 26053Z   26156.39187514  .00024319  00000+0  75280-3 0  9996
2 68230  97.2855  31.7598 0000198 125.1005 235.0257 15.33462066 13668
STARLINK-37104          
1 68231U 26053AA  26155.21456496  .00024882  00000+0  77036-3 0  9991
2 68231  97.2849  30.6022 0001405  88.9720 271.1683 15.33451189 13482
STARLINK-37027          
1 68232U 26054A   26157.00003472  .00035187  00000+0  10482-2 0  9995
2 68232  53.1589 239.5747 0001145  94.1100 196.2284 15.34382607  5968
STARLINK-37132          
1 68233U 26054B   26156.48009119  .00041250  00000+0  74546-3 0  9991
2 68233  53.1570 243.3644 0001020  69.5954 290.5165 15.49322536 12519
STARLINK-37101          
1 68234U 26054C   26156.46725576  .00057476  00000+0  10332-2 0  9991
2 68234  53.1570 246.1637 0000923  59.3141 300.7959 15.49329182 12473
STARLINK-36963          
1 68235U 26054D   26156.52313035  .00021992  00000+0  65983-3 0  9999
2 68235  53.1577 242.1523 0000997  96.5767 263.5349 15.34412895 12533
STARLINK-37127          
1 68236U 26054E   26157.00003472  .00057461  00000+0  10357-2 0  9999
2 68236  53.1587 243.3687 0001329  85.5234 131.6150 15.49250390  5876
STARLINK-37095          
1 68237U 26054F   26156.78156624  .00030644  00000+0  91379-3 0  9990
2 68237  53.1586 240.9243 0001263  88.0883 272.0264 15.34420370 12574
STARLINK-37097          
1 68238U 26054G   26156.94449124  .00044822  00000+0  12886-2 0  9997
2 68238  53.1601 239.8037 0001563  73.9961 286.1215 15.35391238 12601
STARLINK-37096          
1 68239U 26054H   26156.49454561  .00026642  00000+0  77132-3 0  9995
2 68239  53.1594 241.9751 0001553  77.2783 282.8394 15.35426520 12534
STARLINK-37092          
1 68240U 26054J   26157.00003472  .00058089  00000+0  10470-2 0  9997
2 68240  53.1582 243.1566 0001287  90.7590 229.4848 15.49246843  5818
