OBJECT_NAME,OBJECT_ID,EPOCH,MEAN_MOTION,ECCENTRICITY,INCLINATION,RA_OF_ASC_NODE,ARG_OF_PERICENTER,MEAN_ANOMALY,EPHEMERIS_TYPE,CLASSIFICATION_TYPE,NORAD_CAT_ID,ELEMENT_SET_NO,REV_AT_EPOCH,BSTAR,MEAN_MOTION_DOT,MEAN_MOTION_DDOT
STARLINK-37119,2026-053D,2026-06-06T02:18:22.217472,15.33452750,.00010234,97.2841,32.3292,86.5255,273.6105,0,U,68210,999,1376,.11590388E-2,.37538E-3,0
STARLINK-37120,2026-053E,2026-06-05T09:00:48.139488,15.33462606,.00009959,97.2854,31.6291,235.9576,124.1572,0,U,68211,999,1363,.78166718E-3,.25258E-3,0
STARLINK-37117,2026-053F,2026-06-04T15:43:15.178656,15.33452506,.00025781,97.2849,30.9222,99.5173,260.6361,0,U,68212,999,1354,.73863144E-3,.23853E-3,0
STARLINK-37116,2026-053G,2026-06-05T13:34:53.302944,15.33463045,.00020918,97.2849,31.8299,101.2762,258.8716,0,U,68213,999,1368,.11105952E-2,.35972E-3,0
STARLINK-35854,2026-053H,2026-06-05T09:43:53.084928,15.33462986,.00020402,97.2863,31.7359,66.9886,293.1571,0,U,68214,999,1364,.69304554E-3,.22379E-3,0
STARLINK-36272,2026-053J,2026-06-04T15:31:30.498528,15.33460660,.00031668,97.2844,30.9305,111.2801,248.8780,0,U,68215,999,1352,.7644636E-3,.24701E-3,0
STARLINK-37014,2026-053K,2026-06-04T20:09:29.408544,15.33445733,.00014785,97.2842,31.1322,111.6387,248.5013,0,U,68216,999,1357,.36250558E-3,.11646E-3,0
STARLINK-37011,2026-053L,2026-06-05T19:35:05.680608,15.33479644,.00019132,97.2859,32.1016,119.9118,240.2315,0,U,68217,999,1372,.10243951E-2,.33179E-3,0
STARLINK-37108,2026-053M,2026-06-05T02:17:32.292096,15.33459203,.0001921,97.2864,31.3978,65.3586,294.7857,0,U,68218,999,1361,.70627E-3,.22806E-3,0
STARLINK-37106,2026-053N,2026-06-04T05:52:02.580384,15.33442996,.00019485,97.2858,30.5608,93.5484,266.5981,0,U,68219,999,1348,.55012475E-3,.17726E-3,0
STARLINK-37030,2026-053P,2026-06-04T05:44:12.665472,15.33448315,.00019817,97.2867,30.5636,106.2681,253.8779,0,U,68220,999,1348,.71877138E-3,.23204E-3,0
STARLINK-37012,2026-053Q,2026-06-05T02:09:42.104160,15.33453079,.0000355,97.2857,31.4016,68.8107,291.3173,0,U,68221,999,1361,.61933E-3,.19977E-3,0
STARLINK-37110,2026-053R,2026-06-05T17:41:33.196128,15.33444093,.00016248,97.2854,32.0536,97.3850,262.7577,0,U,68222,999,1371,.41586618E-3,.13374E-3,0
STARLINK-37025,2026-053S,2026-06-05T01:57:57.220128,15.33456663,.0001329,97.2853,31.4158,142.5755,217.5580,0,U,68223,999,1361,.53184E-3,.1714E-3,0
STARLINK-36960,2026-053U,2026-06-05T09:39:58.300704,15.33461642,.00017817,97.2865,31.7460,80.4390,279.7054,0,U,68225,999,1364,.6934303E-3,.2239E-3,0
STARLINK-37038,2026-053V,2026-06-05T09:32:08.680416,15.33460159,.00029427,97.2870,31.7545,76.1307,284.0263,0,U,68226,999,1364,.62874433E-3,.20289E-3,0
STARLINK-37083,2026-053W,2026-06-05T09:36:03.769632,15.33468431,.00028804,97.2867,31.7512,73.3973,286.7586,0,U,68227,999,1363,.83347052E-3,.26951E-3,0
STARLINK-37050,2026-053X,2026-06-04T05:16:48.145152,15.33450341,.00011759,97.2852,30.5954,75.0312,285.1060,0,U,68228,999,1346,.62339342E-3,.20107E-3,0
STARLINK-37081,2026-053Y,2026-06-05T21:17:10.309632,15.49266081,.00023962,97.2868,35.0540,121.3231,238.8255,0,U,68229,999,1392,.16409271E-2,.90434E-3,0
STARLINK-37100,2026-053Z,2026-06-05T09:24:18.012096,15.33462066,.00001981,97.2855,31.7598,125.1005,235.0257,0,U,68230,999,1366,.75280385E-3,.24319E-3,0
STARLINK-37104,2026-053AA,2026-06-04T05:08:58.412544,15.33451189,.00014057,97.2849,30.6022,88.9720,271.1683,0,U,68231,999,1348,.77036282E-3,.24882E-3,0
STARLINK-37027,2026-054A,2026-06-06T00:00:02.999808,15.34382607,.00011452,53.1589,239.5747,94.1100,196.2284,0,U,68232,999,596,.10482486E-2,.35187E-3,0
STARLINK-37132,2026-054B,2026-06-05T11:31:19.878816,15.49322536,.00010204,53.1570,243.3644,69.5954,290.5165,0,U,68233,999,1251,.74546203E-3,.4125E-3,0
STARLINK-37101,2026-054C,2026-06-05T11:12:50.897664,15.49329182,.00009234,53.1570,246.1637,59.3141,300.7959,0,U,68234,999,1247,.10331506E-2,.57476E-3,0
STARLINK-36963,2026-054D,2026-06-05T12:33:18.462240,15.34412895,.00009977,53.1577,242.1523,96.5767,263.5349,0,U,68235,999,1253,.6598295E-3,.21992E-3,0
STARLINK-37127,2026-054E,2026-06-06T00:00:02.999808,15.49250390,.00013297,53.1587,243.3687,85.5234,131.6150,0,U,68236,999,587,.10357426E-2,.57461E-3,0
STARLINK-37095,2026-054F,2026-06-05T18:45:27.323136,15.34420370,.00012639,53.1586,240.9243,88.0883,272.0264,0,U,68237,999,1257,.91378952E-3,.30644E-3,0
STARLINK-37097,2026-054G,2026-06-05T22:40:04.043136,15.35391238,.00015631,53.1601,239.8037,73.9961,286.1215,0,U,68238,999,1260,.12885522E-2,.44822E-3,0
STARLINK-37096,2026-054H,2026-06-05T11:52:08.740704,15.35426520,.00015532,53.1594,241.9751,77.2783,282.8394,0,U,68239,999,1253,.7713158E-3,.26642E-3,0
STARLINK-37092,2026-054J,2026-06-06T00:00:02.999808,15.49246843,.00012873,53.1582,243.1566,90.7590,229.4848,0,U,68240,999,581,.10470094E-2,.58089E-3,0
